TEVEL2-6                
1 63215U 25052F   26068.64958975  .00021046  00000+0  70909-3 0  9996
2 63215  97.4016 325.0381 0004769  95.6604 264.5181 15.30760889 54861
STARLINK-33747          
1 63444U 25069M   26068.47605183  .00026340  00000+0  89821-3 0  9994
2 63444  53.1586 143.3523 0001302  87.4041 272.7109 15.30202464 53320
